{
  "norad_id": 58611,
  "name": "STARLINK-31061",
  "history": [
    {
      "epoch": "2026-03-28T14:47:02.342976Z",
      "apogee_km": 484.0606190109438,
      "perigee_km": 481.9652238249437,
      "latitude_deg": -5.1179609220991016e-05,
      "longitude_deg": 14.306090558424346,
      "height_km": 482.8143319143235,
      "semi_major_axis_km": 6861.149921417944,
      "eccentricity": 0.0001527,
      "inclination_deg": 43.0048,
      "raan_deg": 62.0998,
      "arg_perigee_deg": 268.6836,
      "mean_anomaly_deg": 91.384,
      "mean_motion_rev_day": 15.27592081
    }
  ]
}